{"type":"FeatureCollection","metadata":{"generated":1788651983000,"url":"https://earthquake.usgs.gov/fdsnws/event/1/query?format=geojson&starttime=2011-03-09&endtime=2011-03-12&minmagnitude=7&minlatitude=30&maxlatitude=42&minlongitude=135&maxlongitude=145&orderby=time-asc","title":"USGS Earthquakes","status":200,"api":"2.7.0","count":4},"features":[{"type":"Feature","properties":{"mag":7.3,"place":"120 km SE of ?funato, Japan","time":1299638720330,"updated":1658216429766,"tz":null,"url":"https://earthquake.usgs.gov/earthquakes/eventpage/usp000hvhj","detail":"https://earthquake.usgs.gov/fdsnws/event/1/query?eventid=usp000hvhj&format=geojson","felt":281,"cdi":5.4,"mmi":5.048,"alert":null,"status":"reviewed","tsunami":0,"sig":972,"net":"us","code":"p000hvhj","ids":",usb0001r57,usp000hvhj,choy20110309024518,duputel201103090245a,atlas20110309024520,iscgem16293272,","sources":",us,us,choy,duputel,atlas,iscgem,","types":",associate,dyfi,finite-fault,focal-mechanism,general-text,impact-text,moment-tensor,origin,phase-data,poster,shakemap,trump-shakemap,","nst":550,"dmin":null,"rms":0.98,"gap":17.4,"magType":"mww","type":"earthquake","title":"M 7.3 - 120 km SE of ?funato, Japan"},"geometry":{"type":"Point","coordinates":[142.842,38.435,32]},"id":"usp000hvhj"},
{"type":"Feature","properties":{"mag":9.1,"place":"2011 Great Tohoku Earthquake, Japan","time":1299822384120,"updated":1786835019669,"tz":null,"url":"https://earthquake.usgs.gov/earthquakes/eventpage/official20110311054624120_30","detail":"https://earthquake.usgs.gov/fdsnws/event/1/query?eventid=official20110311054624120_30&format=geojson","felt":1459,"cdi":9.1,"mmi":8.18,"alert":null,"status":"reviewed","tsunami":0,"sig":2184,"net":"official","code":"20110311054624120_30","ids":",usc0001xgp,official20110311054624120_30,usp000hvnu,choy20110311054623,duputel201103110546a,atlas20110311054624,iscgem16461282,","sources":",us,official,us,choy,duputel,atlas,iscgem,","types":",dyfi,finite-fault,focal-mechanism,general-header,general-link,general-text,ground-failure,impact-text,moment-tensor,origin,phase-data,poster,scitech-link,scitech-text,shakemap,trump-impact-text,trump-origin,trump-phase-data,trump-shakemap,","nst":541,"dmin":null,"rms":1.16,"gap":9.5,"magType":"mww","type":"earthquake","title":"M 9.1 - 2011 Great Tohoku Earthquake, Japan"},"geometry":{"type":"Point","coordinates":[142.373,38.297,29]},"id":"official20110311054624120_30"},
{"type":"Feature","properties":{"mag":7.9,"place":"47 km E of ?arai, Japan","time":1299824140280,"updated":1686766058583,"tz":null,"url":"https://earthquake.usgs.gov/earthquakes/eventpage/usp000hvpa","detail":"https://earthquake.usgs.gov/fdsnws/event/1/query?eventid=usp000hvpa&format=geojson","felt":256,"cdi":7.6,"mmi":6.705,"alert":null,"status":"reviewed","tsunami":0,"sig":1155,"net":"us","code":"p000hvpa","ids":",usc0001xhz,usp000hvpa,atlas20110311061540,iscgem602707261,","sources":",us,us,atlas,iscgem,","types":",associate,dyfi,general-text,impact-text,moment-tensor,origin,phase-data,poster,shakemap,trump-shakemap,","nst":163,"dmin":null,"rms":1.44,"gap":48.4,"magType":"mwc","type":"earthquake","title":"M 7.9 - 47 km E of ?arai, Japan"},"geometry":{"type":"Point","coordinates":[141.111,36.281,42.6]},"id":"usp000hvpa"},
{"type":"Feature","properties":{"mag":7.7,"place":"272 km ESE of Kamaishi, Japan","time":1299824750300,"updated":1658217891126,"tz":null,"url":"https://earthquake.usgs.gov/earthquakes/eventpage/usp000hvpg","detail":"https://earthquake.usgs.gov/fdsnws/event/1/query?eventid=usp000hvpg&format=geojson","felt":28,"cdi":6.8,"mmi":4.081,"alert":null,"status":"reviewed","tsunami":0,"sig":931,"net":"us","code":"p000hvpg","ids":",usc0001xig,usp000hvpg,iscgem16304073,","sources":",us,us,iscgem,","types":",associate,dyfi,general-text,impact-text,moment-tensor,origin,phase-data,poster,shakemap,","nst":507,"dmin":null,"rms":0.85,"gap":10.8,"magType":"mwc","type":"earthquake","title":"M 7.7 - 272 km ESE of Kamaishi, Japan"},"geometry":{"type":"Point","coordinates":[144.59,38.058,18.6]},"id":"usp000hvpg"}],"bbox":[141.111,36.281,18.6,144.59,38.435,42.6]}